GLOBALSTAR M079 [+]     
1 37188U 10054A   22350.57507280 -.00000105  00000+0 -62308-5 0  9994
2 37188  52.0057  40.9721 0000514 111.8887  53.1148 12.62264908561751
GLOBALSTAR M074 [+]     
1 37189U 10054B   22351.12488285 -.00000097  00000+0  37147-4 0  9991
2 37189  52.0032  38.7626 0000400 131.1909 253.6276 12.62264888561822
GLOBALSTAR M076 [+]     
1 37190U 10054C   22351.06768889 -.00000094  00000+0  53393-4 0  9995
2 37190  52.0049  39.0235 0000787 127.4322 238.0364 12.62269706561826
GLOBALSTAR M077 [+]     
1 37191U 10054D   22350.77448728 -.00000094  00000+0  55070-4 0  9994
2 37191  52.0089 356.5117 0000230  90.7181  80.1550 12.62267035561797
GLOBALSTAR M075 [+]     
1 37192U 10054E   22351.03795895 -.00000102  00000+0  10227-4 0  9990
2 37192  51.9957  81.8755 0000919 111.4866  59.7343 12.62270212561053
GLOBALSTAR M073 [+]     
1 37193U 10054F   22350.80059612 -.00000091  00000+0  69718-4 0  9991
2 37193  52.0075 355.7246 0000249  92.0552  79.0892 12.62269236562483
GLOBALSTAR M083 [+]     
1 37739U 11033A   22351.17474341 -.00000086  00000+0  10136-3 0  9999
2 37739  51.9873 304.5631 0000757  38.3756 334.8614 12.62266001531911
GLOBALSTAR M088 [+]     
1 37740U 11033B   22350.84667455 -.00000090  00000+0  76124-4 0  9999
2 37740  51.9712 211.8232 0001373  71.9038   9.6402 12.62267992527055
GLOBALSTAR M091 [+]     
1 37741U 11033C   22350.95505582 -.00000081  00000+0  12841-3 0  9999
2 37741  51.9968 173.4134 0001352  81.0119  72.5001 12.62269807528111
GLOBALSTAR M085 [+]     
1 37742U 11033D   22350.86557465 -.00000090  00000+0  74496-4 0  9992
2 37742  51.9855 125.5309 0001104 101.4170  66.0747 12.62269748528353
GLOBALSTAR M081 [+]     
1 37743U 11033E   22350.89224892 -.00000095  00000+0  49114-4 0  9995
2 37743  51.9943 127.6756 0001329 103.3517  63.7713 12.62265676528506
GLOBALSTAR M089 [+]     
1 37744U 11033F   22350.58119101 -.00000104  00000+0  49273-6 0  9997
2 37744  51.9938  83.0207 0000926 137.6579 236.5559 12.62270139529562
GLOBALSTAR M084 [+]     
1 38040U 11080A   22350.83177720 -.00000086  00000+0  99236-4 0  9999
2 38040  52.0020 309.0643 0000358  69.8634 303.2373 12.62270544507324
GLOBALSTAR M080 [+]     
1 38041U 11080B   22350.88759760 -.00000092  00000+0  62936-4 0  9999
2 38041  52.0073 310.1800 0000450  81.8319 304.9666 12.62287388507459
GLOBALSTAR M082 [+]     
1 38042U 11080C   22351.16418666 -.00000090  00000+0  78009-4 0  9995
2 38042  52.0080 264.6893 0001120  32.6493 111.1942 12.62265631508368
GLOBALSTAR M092 [+]     
1 38043U 11080D   22350.79745741 -.00000092  00000+0  64052-4 0  9996
2 38043  52.0103 356.1345 0000183 178.4980 216.5560 12.62265341506601
GLOBALSTAR M090 [+]     
1 38044U 11080E   22351.19255613 -.00000097  00000+0  38223-4 0  9992
2 38044  51.9883 259.5885 0001026  55.6826  97.3761 12.62267841508351
GLOBALSTAR M086 [+]     
1 38045U 11080F   22350.79732227 -.00000095  00000+0  46960-4 0  9994
2 38045  51.9896 261.2709 0001843  83.4630 313.3533 12.62267422508218
GLOBALSTAR M097 [+]     
1 39072U 13005A   22350.81579136 -.00000085  00000+0  10407-3 0  9990
2 39072  52.0016 174.8320 0001390  81.4458 278.6566 12.62266568455463
GLOBALSTAR M093 [+]     
1 39073U 13005B   22350.78928069 -.00000089  00000+0  82101-4 0  9995
2 39073  51.9781 169.6781 0001532  80.5251 279.5789 12.62266960455411
GLOBALSTAR M094 [+]     
1 39074U 13005C   22351.10607613 -.00000100  00000+0  18892-4 0  9992
2 39074  51.9966  82.1822 0000864 115.3961 244.6995 12.62266223457083
GLOBALSTAR M096 [+]     
1 39075U 13005D   22350.64420668 -.00000086  00000+0  99343-4 0  9997
2 39075  52.0059 131.3889 0001279  98.1584 261.9428 12.62268692455925
GLOBALSTAR M078 [+]     
1 39076U 13005E   22350.77603723 -.00000098  00000+0  34817-4 0  9995
2 39076  51.9859 216.7407 0000912  23.5984 336.4924 12.62276438454560
GLOBALSTAR M095 [+]     
1 39077U 13005F   22350.80231672 -.00000091  00000+0  72269-4 0  9996
2 39077  51.9777 214.3107 0001346  49.6550 310.4433 12.62261998454428
GLOBALSTAR FM15 [+]     
1 52888U 22064A   22350.63491637 -.00000128  00000+0  00000+0 0  9996
2 52888  51.9809 321.0919 0009731  54.7417 305.4397 13.37546233 24114
